[{"OBJECT_NAME":"STARLINK-4390","OBJECT_ID":"2022-105F","EPOCH":"2026-03-09T15:44:45.266208","MEAN_MOTION":15.01279333,"ECCENTRICITY":0.000187,"INCLINATION":97.6025,"RA_OF_ASC_NODE":310.125,"ARG_OF_PERICENTER":49.5076,"MEAN_ANOMALY":310.6311,"EPHEMERIS_TYPE":0,"CLASSIFICATION_TYPE":"U","NORAD_CAT_ID":53653,"ELEMENT_SET_NO":999,"REV_AT_EPOCH":19322,"BSTAR":-0.00023328,"MEAN_MOTION_DOT":-3.055e-5,"MEAN_MOTION_DDOT":0},{"OBJECT_NAME":"COSMOS 2251 DEB","OBJECT_ID":"1993-036GR","EPOCH":"2026-03-09T03:51:30.155616","MEAN_MOTION":15.03624382,"ECCENTRICITY":0.001162,"INCLINATION":74.0519,"RA_OF_ASC_NODE":328.1155,"ARG_OF_PERICENTER":228.8449,"MEAN_ANOMALY":281.5146,"EPHEMERIS_TYPE":0,"CLASSIFICATION_TYPE":"U","NORAD_CAT_ID":34006,"ELEMENT_SET_NO":999,"REV_AT_EPOCH":89963,"BSTAR":0.0037151817,"MEAN_MOTION_DOT":0.00051242,"MEAN_MOTION_DDOT":0}]
